OBJECT_NAME,OBJECT_ID,EPOCH,MEAN_MOTION,ECCENTRICITY,INCLINATION,RA_OF_ASC_NODE,ARG_OF_PERICENTER,MEAN_ANOMALY,EPHEMERIS_TYPE,CLASSIFICATION_TYPE,NORAD_CAT_ID,ELEMENT_SET_NO,REV_AT_EPOCH,BSTAR,MEAN_MOTION_DOT,MEAN_MOTION_DDOT
CUTE-1 (CO-55),2003-031E,2026-07-01T23:59:56.675328,14.24344824,.00104087,98.6736,191.3725,137.1021,223.0971,0,U,27844,999,19378,.15002425E-3,.303E-5,0
CUBESAT XI-IV (CO-57),2003-031J,2026-07-02T06:38:51.839232,14.23628936,.00099602,98.6769,191.3466,153.7682,206.4003,0,U,27848,999,19352,.13793794E-3,.271E-5,0
CUBESAT XI-V,2005-043F,2026-07-01T22:37:51.348288,14.72672414,.00146567,98.3000,338.8758,154.4297,205.7638,0,U,28895,999,10392,.25709852E-3,.1588E-4,0
CUTE-1.7+APD II (CO-65),2008-021C,2026-07-02T05:30:54.684576,15.09596776,.00081908,97.8282,164.9629,349.4022,10.7033,0,U,32785,999,98746,.41803885E-3,.6657E-4,0
CANX-2,2008-021H,2026-07-01T21:48:40.259520,15.05719826,.00101228,97.8635,162.9739,3.8303,356.2999,0,U,32790,999,98702,.31665177E-3,.452E-4,0
SEEDS II (CO-66),2008-021J,2026-07-01T22:51:57.380544,15.33260854,.00013766,97.7519,181.5604,189.0732,171.0485,0,U,32791,999,98955,.70776567E-3,.22706E-3,0
SWISSCUBE,2009-051B,2026-07-02T06:55:50.388096,14.62510844,.00070619,98.4025,91.4397,154.9157,205.2388,0,U,35932,999,89136,.23925793E-3,.1164E-4,0
BEESAT-1,2009-051C,2026-07-02T07:20:46.115520,14.61745142,.00052694,98.3950,91.0608,165.6666,194.4685,0,U,35933,999,89139,.20391025E-3,.968E-5,0
ITUPSAT1,2009-051E,2026-07-01T23:13:26.434848,14.60462418,.00071225,98.4034,89.8935,182.8141,177.3019,0,U,35935,999,89089,.17831616E-3,.816E-5,0
TISAT 1,2010-035E,2026-07-01T19:31:19.496640,15.32268645,.00032977,98.0711,130.6661,144.1100,216.0362,0,U,36799,999,86994,.81328932E-3,.25312E-3,0
AEROCUBE 4.5A,2012-048K,2026-06-29T19:35:03.540480,16.17962819,.00188678,64.6148,340.0554,267.4936,92.4076,0,U,38767,999,37468,.11805476E-2,.2026816E-1,.7424434E-5
STRAND-1,2013-009E,2026-07-02T05:36:15.962976,14.37172527,.00086046,98.3927,3.0978,177.8958,182.2266,0,U,39090,999,69922,.12610449E-3,.332E-5,0
BRITE-AUSTRIA,2013-009F,2026-07-02T06:04:11.293536,14.36548177,.00099401,98.4000,2.3161,188.4657,171.6363,0,U,39091,999,69921,.84421451E-4,.205E-5,0
NEE-01 PEGASO,2013-018B,2026-07-01T20:51:43.375392,14.93732566,.00137566,98.1239,327.5057,114.3640,245.9017,0,U,39151,999,71289,.29449675E-3,.3062E-4,0
POPACS 2,2013-055E,2026-06-30T04:38:01.187520,14.91555130,.04162574,80.9915,129.3032,152.0121,210.4183,0,U,39269,999,66515,.23496664E-3,.14049E-3,0
POPACS 3,2013-055F,2026-07-02T02:20:19.711104,14.56403618,.05505178,80.9993,213.0188,24.6132,338.0292,0,U,39270,999,64072,.28095208E-3,.11892E-3,0
ZACUBE-1 (TSHEPISOSAT),2013-066B,2026-07-02T03:18:25.906176,15.01270925,.00428906,97.8041,145.5507,197.2821,162.6946,0,U,39417,999,68297,.29185765E-3,.3761E-4,0
WNISAT-1,2013-066H,2026-07-02T07:24:39.354912,14.58095177,.01629588,97.7220,331.3931,183.7829,176.2153,0,U,39423,999,66893,.27219463E-3,.1456E-4,0
TRITON-1,2013-066M,2026-07-02T06:53:53.749824,14.81752808,.00894432,97.8238,92.7508,184.1419,175.9065,0,U,39427,999,67632,.17495753E-3,.1421E-4,0
GOMX-1,2013-066Q,2026-07-02T05:37:19.873920,14.69508555,.01294356,97.6468,22.7470,29.7255,331.1226,0,U,39430,999,67212,.20866933E-3,.1356E-4,0
CUBEBUG-2 (LO-74),2013-066AA,2026-07-02T03:13:35.170176,14.93886243,.00567259,97.8914,132.1769,339.6462,20.2496,0,U,39440,999,67922,.50992949E-3,.5533E-4,0
NEE-02 KRYSAOR,2013-066AB,2026-07-02T02:00:46.584000,14.86688347,.00666607,97.8896,122.1929,22.2887,338.1202,0,U,39441,999,67841,.30977421E-3,.2808E-4,0
FUNCUBE-1 (AO-73),2013-066AE,2026-07-02T04:04:22.469664,15.09671649,.00372868,97.8285,154.9304,150.1022,210.2346,0,U,39444,999,68192,.46384331E-3,.7525E-4,0
UWE-3,2013-066AG,2026-07-01T20:28:32.383776,14.97133222,.00471281,97.8710,139.0279,271.0445,88.5377,0,U,39446,999,67977,.29591236E-3,.3431E-4,0
BRITE-CA1 (TORONTO),2014-033L,2026-07-02T06:10:30.989568,14.72702145,.00775882,97.9758,311.9090,227.9818,131.4768,0,U,40020,999,64443,.17505889E-3,.1116E-4,0
DUCHIFAT-1,2014-033M,2026-07-02T02:25:15.934368,15.67889029,.00000967,98.0445,244.3920,180.5510,179.5749,0,U,40021,999,65808,.12874894E-2,.143832E-2,0
NANOSATC-BR1,2014-033Q,2026-07-02T00:50:36.836448,15.31942146,.00052183,98.0710,216.7426,127.6807,232.4907,0,U,40024,999,65625,.70651672E-3,.21749E-3,0
QB50P1,2014-033R,2026-07-01T23:28:15.894336,15.18486932,.00093476,98.0959,195.1628,164.7109,195.4407,0,U,40025,999,65527,.51493464E-3,.10559E-3,0
QB50P2,2014-033Y,2026-07-02T05:20:32.327232,15.15355500,.00091692,98.0749,181.0404,120.0574,240.1567,0,U,40032,999,65494,.46060823E-3,.8625E-4,0
PERSEUS-M2,2014-033AD,2026-07-02T07:37:49.100160,14.95553288,.0010414,97.9970,134.1682,248.6713,111.3396,0,U,40037,999,65304,.12885504E-3,.1369E-4,0
